NORAD_CAT_ID,OBJECT_NAME,OBJECT_TYPE,EPOCH,MEAN_MOTION,ECCENTRICITY,INCLINATION,RA_OF_ASC_NODE,ARG_OF_PERICENTER,MEAN_ANOMALY,BSTAR,MEAN_MOTION_DOT,MEAN_MOTION_DDOT,TLE_LINE0,TLE_LINE1,TLE_LINE2,SEMIMAJOR_AXIS,PERIOD,APOGEE,PERIGEE,DECAYED
53701.0,STARLINK-4711,PAYLOAD,2022-11-27 06:00:00,15.32453779,0.0001165,53.2166,224.5019,79.2762,315.7611,-0.041621,-0.01199843,0.0,0 STARLINK-4711,1 53701U 22107B   22331.25001157 -.01199843  00000-0 -41621-1 0  9992,2 53701  53.2166 224.5019 0001165  79.2762 315.7611 15.32453779 13172,6846.630999999999,93.967,469.294,467.698,0.0
53701.0,STARLINK-4711,PAYLOAD,2022-11-27 14:00:01,15.31584953,0.0001174,53.217,222.9496,76.5425,357.9387,-0.039913,-0.01126396,0.0,0 STARLINK-4711,1 53701U 22107B   22331.58334491 -.01126396  00000-0 -39913-1 0  9992,2 53701  53.2170 222.9496 0001174  76.5425 357.9387 15.31584953  1302,6849.22,94.02,471.889,470.281,0.0
53701.0,STARLINK-4711,PAYLOAD,2022-11-27 22:00:00,15.30793907,0.0001286,53.217,221.4019,84.9553,27.9513,-0.042101,-0.01156176,0.0,0 STARLINK-4711,1 53701U 22107B   22331.91667824 -.01156176  00000-0 -42101-1 0  9990,2 53701  53.2170 221.4019 0001286  84.9553  27.9513 15.30793907  1301,6851.579000000002,94.069,474.325,472.56300000000016,0.0
53701.0,STARLINK-4711,PAYLOAD,2022-11-28 00:00:00,15.30579,0.0001412,53.2173,221.0156,91.6286,120.7407,-0.0418,-0.0114164,0.0,0 STARLINK-4711,1 53701U 22107B   22332.00001157 -.01141640  00000-0 -41800-1 0  9997,2 53701  53.2173 221.0156 0001412  91.6286 120.7407 15.30579000 13281,6852.221,94.082,475.05300000000005,473.11800000000005,0.0
53701.0,STARLINK-4711,PAYLOAD,2022-11-28 22:00:01,15.28210384,0.000143,53.2173,216.7675,88.1823,134.3076,-0.037567,-0.00967329,0.0,0 STARLINK-4711,1 53701U 22107B   22332.91668981 -.00967329  00000-0 -37567-1 0  9995,2 53701  53.2173 216.7675 0001430  88.1823 134.3076 15.28210384  1303,6859.299,94.228,482.145,480.1830000000001,0.0
53701.0,STARLINK-4711,PAYLOAD,2022-11-29 06:00:00,15.27494645,0.0001312,53.2166,215.2272,62.5271,194.3729,-0.043986,-0.01096123,0.0,0 STARLINK-4711,1 53701U 22107B   22333.25001157 -.01096123  00000-0 -43986-1 0  9997,2 53701  53.2166 215.2272 0001312  62.5271 194.3729 15.27494645 13479,6861.441999999999,94.272,484.207,482.406,0.0
53701.0,STARLINK-4711,PAYLOAD,2022-11-29 14:00:01,15.26698861,0.0001317,53.217,213.6867,49.7531,240.7509,-0.04616,-0.0112036,0.0,0 STARLINK-4711,1 53701U 22107B   22333.58335648 -.01120360  00000-0 -46160-1 0  9996,2 53701  53.2170 213.6867 0001317  49.7531 240.7509 15.26698861  1303,6863.826,94.321,486.595,484.787,0.0
53701.0,STARLINK-4711,PAYLOAD,2022-11-29 22:00:00,15.25903363,0.000127,53.217,212.1509,79.5165,243.4847,-0.048429,-0.011603,0.0,0 STARLINK-4711,1 53701U 22107B   22333.91667824 -.01160300  00000-0 -48429-1 0  9995,2 53701  53.2170 212.1509 0001270  79.5165 243.4847 15.25903363 13585,6866.2109999999975,94.37,488.948,487.204,0.0
53701.0,STARLINK-4711,PAYLOAD,2022-11-30 14:00:01,15.24266439,0.0001154,53.2172,209.0809,79.7485,305.5293,-0.050265,-0.01147269,0.0,0 STARLINK-4711,1 53701U 22107B   22334.58335648 -.01147269  00000-0 -50265-1 0  9995,2 53701  53.2172 209.0809 0001154  79.7485 305.5293 15.24266439  1300,6871.126,94.472,493.784,492.198,0.0
53701.0,STARLINK-4711,PAYLOAD,2022-11-30 22:00:00,15.23455809,0.0001250999999999,53.2174,207.5514,72.4759,342.3728,-0.05172,-0.01151796,0.0,0 STARLINK-4711,1 53701U 22107B   22334.91667824 -.01151796  00000-0 -51720-1 0  9993,2 53701  53.2174 207.5514 0001251  72.4759 342.3728 15.23455809 13732,6873.563,94.522,496.288,494.568,0.0
53701.0,STARLINK-4711,PAYLOAD,2022-12-01 14:00:01,15.21826849,0.0001325,53.2174,204.4925,75.5861,35.6045,-0.054173,-0.0114955,0.0,0 STARLINK-4711,1 53701U 22107B   22335.58334491 -.01149550  00000-0 -54173-1 0  9998,2 53701  53.2174 204.4925 0001325  75.5861  35.6045 15.21826849  1302,6878.467,94.623,501.244,499.421,0.0
53701.0,STARLINK-4711,PAYLOAD,2022-12-01 22:00:00,15.21011104,0.0001343,53.2171,202.9685,82.3265,55.5672,-0.055312,-0.01146065,0.0,0 STARLINK-4711,1 53701U 22107B   22335.91667824 -.01146065  00000-0 -55312-1 0  9998,2 53701  53.2171 202.9685 0001343  82.3265  55.5672 15.21011104 13882,6880.926,94.674,503.716,501.867,0.0
53701.0,STARLINK-4711,PAYLOAD,2022-12-02 14:00:01,15.19287332,0.000135,53.2171,199.9212,74.2163,114.1988,-0.050906,-0.01000539,0.0,0 STARLINK-4711,1 53701U 22107B   22336.58334491 -.01000539  00000-0 -50906-1 0  9992,2 53701  53.2171 199.9212 0001350  74.2163 114.1988 15.19287332 13986,6886.13,94.781,508.925,507.066,0.0
53701.0,STARLINK-4711,PAYLOAD,2022-12-02 22:00:00,15.18210456,0.00015,53.2174,198.4027,88.9194,123.4053,-0.032941,-0.00634073,0.0,0 STARLINK-4711,1 53701U 22107B   22336.91667824 -.00634073  00000-0 -32941-1 0  9992,2 53701  53.2174 198.4027 0001500  88.9194 123.4053 15.18210456 14035,6889.386,94.849,512.284,510.218,0.0
53701.0,STARLINK-4711,PAYLOAD,2022-12-03 08:00:01,15.17526142,0.0001264,53.2176,196.5052,91.5346,238.9502,-0.058903,-0.01105685,0.0,0 STARLINK-4711,1 53701U 22107B   22337.33334491 -.01105685  00000-0 -58903-1 0  9999,2 53701  53.2176 196.5052 0001264  91.5346 238.9502 15.17526142 14100,6891.456999999999,94.891,514.193,512.451,0.0
53701.0,STARLINK-4711,PAYLOAD,2022-12-03 14:00:01,15.16564246,0.0001125,53.2166,195.3674,63.9722,192.9673,-0.032971,-0.00607103,0.0,0 STARLINK-4711,1 53701U 22107B   22337.58334491 -.00607103  00000-0 -32971-1 0  9994,2 53701  53.2166 195.3674 0001125  63.9722 192.9673 15.16564246  1305,6894.371,94.951,517.011,515.46,0.0
53701.0,STARLINK-4711,PAYLOAD,2022-12-03 22:00:00,15.15820676,0.0001355,53.2172,193.8538,90.0996,187.6336,-0.038803,-0.00700423,0.0,0 STARLINK-4711,1 53701U 22107B   22337.91667824 -.00700423  00000-0 -38803-1 0  9999,2 53701  53.2172 193.8538 0001355  90.0996 187.6336 15.15820676  1301,6896.625,94.998,519.425,517.556,0.0
53701.0,STARLINK-4711,PAYLOAD,2022-12-04 06:00:00,15.15175413,0.0001211,53.2167,192.3416,75.8749,221.6292,-0.053411,-0.00937389,0.0,0 STARLINK-4711,1 53701U 22107B   22338.25001157 -.00937389  00000-0 -53411-1 0  9993,2 53701  53.2167 192.3416 0001211  75.8749 221.6292 15.15175413 14241,6898.583000000001,95.039,521.283,519.613,0.0
53701.0,STARLINK-4711,PAYLOAD,2022-12-04 14:00:01,15.14488489,0.0001323,53.2168,190.8301,64.1803,252.143,-0.0655159999999999,-0.01125726,0.0,0 STARLINK-4711,1 53701U 22107B   22338.58334491 -.01125726  00000-0 -65516-1 0  9993,2 53701  53.2168 190.8301 0001323  64.1803 252.1430 15.14488489  1309,6900.669,95.082,523.447,521.621,0.0
53701.0,STARLINK-4711,PAYLOAD,2022-12-04 22:00:00,15.13751796,0.0001279,53.217,189.3235,77.9266,256.2614,-0.073875,-0.01233366,0.0,0 STARLINK-4711,1 53701U 22107B   22338.91667824 -.01233366  00000-0 -73875-1 0  9996,2 53701  53.2170 189.3235 0001279  77.9266 256.2614 15.13751796  1308,6902.908,95.128,525.655,523.89,0.0
53701.0,STARLINK-4711,PAYLOAD,2022-12-05 06:00:00,15.12882296,0.0001296,53.2168,187.8159,61.2155,289.9262,-0.070732,-0.01158597,0.0,0 STARLINK-4711,1 53701U 22107B   22339.25001157 -.01158597  00000-0 -70732-1 0  9996,2 53701  53.2168 187.8159 0001296  61.2155 289.9262 15.12882296 14399,6905.552,95.183,528.312,526.5219999999998,0.0
53701.0,STARLINK-4711,PAYLOAD,2022-12-05 14:00:01,15.12066955,0.0001527,53.2167,186.3101,50.047,317.1046,-0.072014,-0.01153371,0.0,0 STARLINK-4711,1 53701U 22107B   22339.58335648 -.01153371  00000-0 -72014-1 0  9997,2 53701  53.2167 186.3101 0001527  50.0470 317.1046 15.12066955  1309,6908.034000000002,95.234,530.9540000000002,528.845,0.0
53701.0,STARLINK-4711,PAYLOAD,2022-12-05 22:00:01,15.11248312,0.0001662,53.2174,184.8092,42.6723,339.4506,-0.073365,-0.01148822,0.0,0 STARLINK-4711,1 53701U 22107B   22339.91668981 -.01148822  00000-0 -73365-1 0  9998,2 53701  53.2174 184.8092 0001662  42.6723 339.4506 15.11248312  1303,6910.529,95.285,533.5419999999998,531.245,0.0
53701.0,STARLINK-4711,PAYLOAD,2022-12-06 08:00:01,15.10251676,0.0001625,53.2172,182.9319,48.5405,80.8476,-0.077682,-0.01180391,0.0,0 STARLINK-4711,1 53701U 22107B   22340.33334491 -.01180391  00000-0 -77682-1 0  9995,2 53701  53.2172 182.9319 0001625  48.5405  80.8476 15.10251676 14553,6913.569,95.348,536.557,534.31,0.0
53701.0,STARLINK-4711,PAYLOAD,2022-12-06 14:00:01,15.09483913,0.0001525,53.2168,181.8072,47.1547,1.9971,-0.046743,-0.00705784,0.0,0 STARLINK-4711,1 53701U 22107B   22340.58335648 -.00705784  00000-0 -46743-1 0  9999,2 53701  53.2168 181.8072 0001525  47.1547   1.9971 15.09483913  1305,6915.913000000001,95.397,538.8330000000002,536.7230000000002,0.0
53701.0,STARLINK-4711,PAYLOAD,2022-12-06 16:00:00,15.09287187,0.0001658,53.2171,181.4331,43.9291,98.2526,-0.036449,-0.0055061,0.0,0 STARLINK-4711,1 53701U 22107B   22340.66667824 -.00550610  00000-0 -36449-1 0  9990,2 53701  53.2171 181.4331 0001658  43.9291  98.2526 15.09287187 14607,6916.514,95.409,539.526,537.232,0.0
53701.0,STARLINK-4711,PAYLOAD,2022-12-06 22:00:00,15.08887763,0.0001365,53.2171,180.3117,63.412,357.7401,-0.005026,-0.00079498,0.0,0 STARLINK-4711,1 53701U 22107B   22340.91667824 -.00079498  00000-0 -50260-2 0  9996,2 53701  53.2171 180.3117 0001365  63.4120 357.7401 15.08887763  1303,6917.734,95.435,540.544,538.655,0.0
53701.0,STARLINK-4711,PAYLOAD,2022-12-07 08:00:01,15.08837205,0.0001268,53.2142,178.4386,51.7897,113.8065,0.00084956,0.00013258,0.0,0 STARLINK-4711,1 53701U 22107B   22341.33334491  .00013258  00000-0  84956-3 0  9994,2 53701  53.2142 178.4386 0001268  51.7897 113.8065 15.08837205 14701,6917.889,95.438,540.631,538.877,0.0
53701.0,STARLINK-4711,PAYLOAD,2022-12-08 00:00:00,15.08830932,0.0001467,53.2141,175.4472,45.9521,142.8568,0.0032053,0.00051082,0.0,0 STARLINK-4711,1 53701U 22107B   22342.00001157  .00051082  00000-0  32053-2 0  9996,2 53701  53.2141 175.4472 0001467  45.9521 142.8568 15.08830932  1305,6917.908,95.438,540.788,538.758,0.0
